NORAD_CAT_ID,OBJECT_NAME,OBJECT_TYPE,EPOCH,MEAN_MOTION,ECCENTRICITY,INCLINATION,RA_OF_ASC_NODE,ARG_OF_PERICENTER,MEAN_ANOMALY,BSTAR,MEAN_MOTION_DOT,MEAN_MOTION_DDOT,TLE_LINE0,TLE_LINE1,TLE_LINE2,SEMIMAJOR_AXIS,PERIOD,APOGEE,PERIGEE,DECAYED
55651.0,STARLINK-5506,PAYLOAD,2024-05-21 20:49:21,14.98320854,0.0002765,70.0013,40.6264,265.0202,95.0641,0.00026503,3.07e-05,0.0,0 STARLINK-5506,1 55651U 23021Z   24142.86760707  .00003070  00000-0  26503-3 0  9993,2 55651  70.0013  40.6264 0002765 265.0202  95.0641 14.98320854 70101,6950.221,96.108,574.008,570.164,0.0
55651.0,STARLINK-5506,PAYLOAD,2024-05-21 22:25:29,14.98322208,0.0002779,70.0014,40.4598,259.8933,100.1913,0.000256,2.962e-05,0.0,0 STARLINK-5506,1 55651U 23021Z   24142.93436673  .00002962  00000-0  25600-3 0  9999,2 55651  70.0014  40.4598 0002779 259.8933 100.1913 14.98322208 70416,6950.217,96.107,574.013,570.151,0.0
55651.0,STARLINK-5506,PAYLOAD,2024-05-22 03:13:53,14.98325541,0.0002642,70.0016,39.9542,260.9091,99.1769,0.00028071,3.258e-05,0.0,0 STARLINK-5506,1 55651U 23021Z   24143.13464490  .00003258  00000-0  28071-3 0  9994,2 55651  70.0016  39.9542 0002642 260.9091  99.1769 14.98325541 70449,6950.207,96.107,573.908,570.235,0.0
55651.0,STARLINK-5506,PAYLOAD,2024-05-22 20:51:22,14.98331739,0.0002629,70.002,38.103,265.9811,94.1048,3.4447e-05,3.18e-06,0.0,0 STARLINK-5506,1 55651U 23021Z   24143.86900743  .00000318  00000-0  34447-4 0  9999,2 55651  70.0020  38.1030 0002629 265.9811  94.1048 14.98331739 70257,6950.188,96.107,573.88,570.225,0.0
55651.0,STARLINK-5506,PAYLOAD,2024-05-23 03:15:54,14.98330226,0.0002654,70.0019,37.4295,266.8184,93.2672,2.7966e-05,2.41e-06,0.0,0 STARLINK-5506,1 55651U 23021Z   24144.13604831  .00000241  00000-0  27966-4 0  9992,2 55651  70.0019  37.4295 0002654 266.8184  93.2672 14.98330226 70591,6950.192,96.107,573.902,570.213,0.0
55651.0,STARLINK-5506,PAYLOAD,2024-05-23 19:17:14,14.9833579,0.0002577,70.0018,35.7468,262.1424,97.9442,7.5335e-06,-3e-08,0.0,0 STARLINK-5506,1 55651U 23021Z   24144.80364269 -.00000003  00000-0  75335-5 0  9995,2 55651  70.0018  35.7468 0002577 262.1424  97.9442 14.98335790 70691,6950.175,96.107,573.831,570.249,0.0
55651.0,STARLINK-5506,PAYLOAD,2024-05-24 03:17:54,14.98339555,0.0002547,70.0018,34.9048,262.1907,97.8963,5.2091e-05,5.29e-06,0.0,0 STARLINK-5506,1 55651U 23021Z   24145.13743775  .00000529  00000-0  52091-4 0  9990,2 55651  70.0018  34.9048 0002547 262.1907  97.8963 14.98339555 70442,6950.163,96.106,573.799,570.258,0.0
55651.0,STARLINK-5506,PAYLOAD,2024-05-24 20:55:24,14.98325895,0.0003269,70.0004,33.0518,266.8192,93.2593,-6.8998e-05,-9.16e-06,0.0,0 STARLINK-5506,1 55651U 23021Z   24145.87180832 -.00000916  00000-0 -68998-4 0  9995,2 55651  70.0004  33.0518 0003269 266.8192  93.2593 14.98325895 70551,6950.206,96.107,574.343,569.799,0.0
55651.0,STARLINK-5506,PAYLOAD,2024-05-24 22:31:32,14.98326072,0.00033,70.0002,32.8833,268.2202,91.8579,-5.7848e-05,-7.83e-06,0.0,0 STARLINK-5506,1 55651U 23021Z   24145.93856814 -.00000783  00000-0 -57848-4 0  9996,2 55651  70.0002  32.8833 0003300 268.2202  91.8579 14.98326072 70860,6950.205,96.107,574.364,569.776,0.0
55651.0,STARLINK-5506,PAYLOAD,2024-05-25 01:43:48,14.98328632,0.0003125,70.0003,32.5471,267.9092,92.1709,-3.6339e-05,-5.27e-06,0.0,0 STARLINK-5506,1 55651U 23021Z   24146.07208623 -.00000527  00000-0 -36339-4 0  9999,2 55651  70.0003  32.5471 0003125 267.9092  92.1709 14.98328632 70889,6950.197,96.107,574.234,569.89,0.0
55651.0,STARLINK-5506,PAYLOAD,2024-05-25 20:57:25,14.98327047,0.0002989,70.0004,30.527,263.7255,96.3564,-6.9576e-05,-9.23e-06,0.0,0 STARLINK-5506,1 55651U 23021Z   24146.87320952 -.00000923  00000-0 -69576-4 0  9996,2 55651  70.0004  30.5270 0002989 263.7255  96.3564 14.98327047 70702,6950.202,96.107,574.144,569.99,0.0
55651.0,STARLINK-5506,PAYLOAD,2024-05-26 01:45:49,14.98327766,0.000284,70.0009,30.0223,257.7661,102.3181,-3.0734e-05,-4.6e-06,0.0,0 STARLINK-5506,1 55651U 23021Z   24147.07348821 -.00000460  00000-0 -30734-4 0  9994,2 55651  70.0009  30.0223 0002840 257.7661 102.3181 14.98327766 71038,6950.2,96.107,574.039,570.091,0.0
55651.0,STARLINK-5506,PAYLOAD,2024-05-26 20:59:25,14.9832991,0.0003125,70.0014,28.0038,262.5041,97.5763,0.00019606,2.247e-05,0.0,0 STARLINK-5506,1 55651U 23021Z   24147.87460039  .00002247  00000-0  19606-3 0  9995,2 55651  70.0014  28.0038 0003125 262.5041  97.5763 14.98329910 70851,6950.193,96.107,574.23,569.886,0.0
55651.0,STARLINK-5506,PAYLOAD,2024-05-26 22:35:33,14.98336781,0.0003382,70.0006,27.834,270.9137,89.1635,4.8367e-05,4.84e-06,0.0,0 STARLINK-5506,1 55651U 23021Z   24147.94136003  .00000484  00000-0  48367-4 0  9992,2 55651  70.0006  27.8340 0003382 270.9137  89.1635 14.98336781 71163,6950.172,96.107,574.387,569.686,0.0
55651.0,STARLINK-5506,PAYLOAD,2024-05-27 09:48:29,14.98334834,0.0003216,70.0013,26.6557,266.8368,93.2423,0.00011529,1.283e-05,0.0,0 STARLINK-5506,1 55651U 23021Z   24148.40867723  .00001283  00000-0  11529-3 0  9991,2 55651  70.0013  26.6557 0003216 266.8368  93.2423 14.98334834 71230,6950.178,96.107,574.278,569.808,0.0
55651.0,STARLINK-5506,PAYLOAD,2024-05-27 21:01:26,14.98328209,0.0002861,70.0013,25.4783,255.4848,104.5994,4.6803e-05,4.65e-06,0.0,0 STARLINK-5506,1 55651U 23021Z   24148.87600422  .00000465  00000-0  46803-4 0  9998,2 55651  70.0013  25.4783 0002861 255.4848 104.5994 14.98328209 71003,6950.198,96.107,574.052,570.075,0.0
55651.0,STARLINK-5506,PAYLOAD,2024-05-27 22:37:34,14.98327367,0.0002844,70.0014,25.31,255.1433,104.9411,4.2496e-05,4.14e-06,0.0,0 STARLINK-5506,1 55651U 23021Z   24148.94276492  .00000414  00000-0  42496-4 0  9990,2 55651  70.0014  25.3100 0002844 255.1433 104.9411 14.98327367 71310,6950.201,96.107,574.043,570.089,0.0
55651.0,STARLINK-5506,PAYLOAD,2024-05-28 01:49:51,14.98327224,0.0002926,70.0011,24.9729,261.029,99.0538,4.7805e-05,4.77e-06,0.0,0 STARLINK-5506,1 55651U 23021Z   24149.07628522  .00000477  00000-0  47805-4 0  9998,2 55651  70.0011  24.9729 0002926 261.0290  99.0538 14.98327224 71335,6950.201,96.107,574.1,570.033,0.0
55651.0,STARLINK-5506,PAYLOAD,2024-05-28 21:03:27,14.98335085,0.0003065,70.0006,22.9527,265.4098,94.6711,-3.8386e-05,-5.51e-06,0.0,0 STARLINK-5506,1 55651U 23021Z   24149.87740121 -.00000551  00000-0 -38386-4 0  9995,2 55651  70.0006  22.9527 0003065 265.4098  94.6711 14.98335085 71453,6950.177,96.107,574.172,569.912,0.0
55651.0,STARLINK-5506,PAYLOAD,2024-05-29 01:51:51,14.98336595,0.0002963,70.0008,22.4474,264.8118,95.2703,-1.1015e-05,-2.24e-06,0.0,0 STARLINK-5506,1 55651U 23021Z   24150.07767879 -.00000224  00000-0 -11015-4 0  9995,2 55651  70.0008  22.4474 0002963 264.8118  95.2703 14.98336595 71188,6950.172,96.107,574.097,569.978,0.0
55651.0,STARLINK-5506,PAYLOAD,2024-05-29 21:05:28,14.98329185,0.0002932,70.0008,20.4271,268.7805,91.3018,2.2886e-05,1.8e-06,0.0,0 STARLINK-5506,1 55651U 23021Z   24150.87880171  .00000180  00000-0  22886-4 0  9991,2 55651  70.0008  20.4271 0002932 268.7805  91.3018 14.98329185 71300,6950.195,96.107,574.098,570.023,0.0
55651.0,STARLINK-5506,PAYLOAD,2024-05-29 22:41:36,14.98329774,0.0002919,70.0008,20.2587,268.5369,91.5455,2.9685e-05,2.61e-06,0.0,0 STARLINK-5506,1 55651U 23021Z   24150.94556113  .00000261  00000-0  29685-4 0  9999,2 55651  70.0008  20.2587 0002919 268.5369  91.5455 14.98329774 71611,6950.194,96.107,574.087,570.03,0.0
55651.0,STARLINK-5506,PAYLOAD,2024-05-30 00:17:44,14.98331591,0.0002884,70.0009,20.0903,269.2995,90.7833,1.3143e-05,6.4e-07,0.0,0 STARLINK-5506,1 55651U 23021Z   24151.01232065  .00000064  00000-0  13143-4 0  9998,2 55651  70.0009  20.0903 0002884 269.2995  90.7833 14.98331591 71628,6950.188,96.107,574.057,570.049,0.0
55651.0,STARLINK-5506,PAYLOAD,2024-05-30 17:55:12,14.98335217,0.0002849,70.0012,18.2402,254.456,105.6285,4.944e-05,4.97e-06,0.0,0 STARLINK-5506,1 55651U 23021Z   24151.74667486  .00000497  00000-0  49440-4 0  9996,2 55651  70.0012  18.2402 0002849 254.4560 105.6285 14.98335217 71435,6950.177,96.107,574.022,570.062,0.0
55651.0,STARLINK-5506,PAYLOAD,2024-05-31 14:44:57,14.9833217,0.0002773,70.0011,16.0518,255.3527,104.7324,2.7396e-05,2.34e-06,0.0,0 STARLINK-5506,1 55651U 23021Z   24152.61455503  .00000234  00000-0  27396-4 0  9993,2 55651  70.0011  16.0518 0002773 255.3527 104.7324 14.98332170 71863,6950.186,96.107,573.978,570.124,0.0
55651.0,STARLINK-5506,PAYLOAD,2024-05-31 21:09:29,14.98331421,0.0003007,70.0005,15.3784,266.7303,93.3512,-7.1103e-06,-1.78e-06,0.0,0 STARLINK-5506,1 55651U 23021Z   24152.88159651 -.00000178  00000-0 -71103-5 0  9992,2 55651  70.0005  15.3784 0003007 266.7303  93.3512 14.98331421 71604,6950.188,96.107,574.143,569.964,0.0
55651.0,STARLINK-5506,PAYLOAD,2024-05-31 22:45:37,14.98331463,0.0002881,70.0004,15.2096,264.182,95.9011,-7.7391e-06,-1.85e-06,0.0,0 STARLINK-5506,1 55651U 23021Z   24152.94835645 -.00000185  00000-0 -77391-5 0  9996,2 55651  70.0004  15.2096 0002881 264.1820  95.9011 14.98331463 71915,6950.188,96.107,574.056,570.051,0.0
55651.0,STARLINK-5506,PAYLOAD,2024-06-01 14:46:59,14.98325039,0.0003126,70.0003,13.5258,269.7655,90.3146,-3.0673e-05,-4.59e-06,0.0,0 STARLINK-5506,1 55651U 23021Z   24153.61596072 -.00000459  00000-0 -30673-4 0  9994,2 55651  70.0003  13.5258 0003126 269.7655  90.3146 14.98325039 72017,6950.208,96.107,574.246,569.901,0.0
55651.0,STARLINK-5506,PAYLOAD,2024-06-01 21:11:31,14.98328744,0.0003043,70.0008,12.8512,268.4764,91.6046,-3.122e-05,-4.65e-06,0.0,0 STARLINK-5506,1 55651U 23021Z   24153.88299888 -.00000465  00000-0 -31220-4 0  9994,2 55651  70.0008  12.8512 0003043 268.4764  91.6046 14.98328744 71751,6950.197,96.107,574.177,569.947,0.0
55651.0,STARLINK-5506,PAYLOAD,2024-06-02 08:24:27,14.98329112,0.0002827,70.0008,11.6732,270.2657,89.8178,-1.5157e-05,-2.74e-06,0.0,0 STARLINK-5506,1 55651U 23021Z   24154.35031908 -.00000274  00000-0 -15157-4 0  9993,2 55651  70.0008  11.6732 0002827 270.2657  89.8178 14.98329112 72120,6950.196,96.107,574.025,570.096,0.0
